CCSDS_OEM_VERS = 2.0
CREATION_DATE  = 2022-02-11T18:53:27.821
ORIGINATOR     = NASA/JSC/FOD/TOPO

META_START
OBJECT_NAME          = ISS
OBJECT_ID            = 1998-067-A
CENTER_NAME          = Earth
REF_FRAME            = EME2000
TIME_SYSTEM          = UTC
START_TIME           = 2022-02-11T12:00:00.000
USEABLE_START_TIME   = 2022-02-11T12:00:00.000
USEABLE_STOP_TIME    = 2022-02-26T12:00:00.000
STOP_TIME            = 2022-02-26T12:00:00.000
META_STOP

COMMENT Source: This file was produced by the TOPO office within FOD at JSC.
COMMENT Units are in kg and m^2
COMMENT MASS=445386.00
COMMENT DRAG_AREA=1439.70
COMMENT DRAG_COEFF=3.40
COMMENT SOLAR_RAD_AREA=0.00
COMMENT SOLAR_RAD_COEFF=0.00
COMMENT Orbits start at the ascending node epoch
COMMENT ISS first asc. node: EPOCH = 2022-02-11T12:08:41.500 $ ORBIT = 568 $ LAN(DEG) = -84.71503
COMMENT ISS last asc. node : EPOCH = 2022-02-26T11:10:09.027 $ ORBIT = 800 $ LAN(DEG) = -158.91754
COMMENT Begin sequence of events
COMMENT TRAJECTORY EVENT SUMMARY:
COMMENT 
COMMENT |       EVENT        |       TIG        | ORB |   DV    |   HA    |   HP    |
COMMENT |                    |       GMT        |     |   M/S   |   KM    |   KM    |
COMMENT |                    |                  |     |  (F/S)  |  (NM)   |  (NM)   |
COMMENT =============================================================================
COMMENT  80P Launch            046:04:25:40.000             0.0     426.3     408.0
COMMENT                                                    (0.0)   (230.2)   (220.3)
COMMENT 
COMMENT  80P Arrivals          048:07:06:29.000             0.0     425.6     408.2
COMMENT                                                    (0.0)   (229.8)   (220.4)
COMMENT 
COMMENT  NG-17 Launch          050:17:39:59.000             0.0     425.4     408.4
COMMENT                                                    (0.0)   (229.7)   (220.5)
COMMENT 
COMMENT  NG-17 Arrival         052:09:35:00.000             0.0     424.8     408.6
COMMENT                                                    (0.0)   (229.4)   (220.6)
COMMENT 
COMMENT  GMT057 Reboost        057:01:37:00.000             0.4     423.8     409.1
COMMENT                                                    (1.3)   (228.8)   (220.9)
COMMENT 
COMMENT =============================================================================
COMMENT End sequence of events
2022-02-26T01:38:20.000 -2810.525168682190 4300.875438624870 -4456.816453323320 -6.82457630825906 -1.04068078494613 3.29790730606540
2022-02-26T01:38:22.000 -2824.167203353040 4298.783199076530 -4450.209336568020 -6.81745260087875 -1.05155789675147 3.30920667205335
2022-02-26T01:38:24.000 -2837.794956050620 4296.669210522690 -4443.579637762930 -6.81029434086508 -1.06242978131132 3.32048934631614
2022-02-26T01:38:26.000 -2851.408357705010 4294.533483472620 -4436.927390348720 -6.80310156361071 -1.07329638387183 3.33175527163626
2022-02-26T01:38:28.000 -2865.007339317270 4292.376028545030 -4430.252627880440 -6.79587430468357 -1.08415764970075 3.34300439087298
2022-02-26T01:38:30.000 -2878.591831959780 4290.196856468110 -4423.555384027330 -6.78861259982694 -1.09501352408780 3.35423664696277
2022-02-26T01:38:32.000 -2892.161766776570 4287.995978079430 -4416.835692572680 -6.78131648495948 -1.10586395234494 3.36545198291971
2022-02-26T01:38:34.000 -2905.717074983670 4285.773404325930 -4410.093587413680 -6.77398599617534 -1.11670887980678 3.37665034183592
2022-02-26T01:38:36.000 -2919.257687869500 4283.529146263830 -4403.329102561250 -6.76662116974413 -1.12754825183087 3.38783166688203
2022-02-26T01:38:38.000 -2932.783536795180 4281.263215058640 -4396.542272139900 -6.75922204211096 -1.13838201379810 3.39899590130766
2022-02-26T01:38:40.000 -2946.294553194890 4278.975621985070 -4389.733130387550 -6.75178864989647 -1.14921011111304 3.41014298844184
2022-02-26T01:38:42.000 -2959.790668576240 4276.666378427000 -4382.901711655390 -6.74432102989679 -1.16003248920431 3.42127287169352
2022-02-26T01:38:44.000 -2973.271814520600 4274.335495877440 -4376.048050407700 -6.73681921908351 -1.17084909352498 3.43238549455205
2022-02-26T01:38:46.000 -2986.737922683460 4271.982985938430 -4369.172181221730 -6.72928325460365 -1.18165986955293 3.44348080058763
2022-02-26T01:38:48.000 -3000.188924794780 4269.608860321080 -4362.274138787470 -6.72171317377960 -1.19246476279125 3.45455873345189
2022-02-26T01:38:50.000 -3013.624752659340 4267.213130845440 -4355.353957907550 -6.71410901410905 -1.20326371876862 3.46561923687829
2022-02-26T01:38:52.000 -3027.045338157090 4264.795809440480 -4348.411673497040 -6.70647081326487 -1.21405668303970 3.47666225468269
2022-02-26T01:38:54.000 -3040.450613243510 4262.356908144040 -4341.447320583300 -6.69879860909502 -1.22484360118555 3.48768773076381
2022-02-26T01:38:56.000 -3053.840509949930 4259.896439102750 -4334.460934305810 -6.69109243962241 -1.23562441881401 3.49869560910378
2022-02-26T01:38:58.000 -3067.214960383930 4257.414414572040 -4327.452549916010 -6.68335234304477 -1.24639908156010 3.50968583376859
2022-02-26T01:39:00.000 -3080.573896729620 4254.910846915990 -4320.422202777090 -6.67557835773445 -1.25716753508642 3.52065834890864
2022-02-26T01:39:02.000 -3093.917251248070 4252.385748607380 -4313.369928363900 -6.66777052223828 -1.26792972508355 3.53161309875920
2022-02-26T01:39:04.000 -3107.244956277590 4249.839132227530 -4306.295762262700 -6.65992887527735 -1.27868559727046 3.54255002764094
2022-02-26T01:39:06.000 -3120.556944234130 4247.271010466340 -4299.199740171050 -6.65205345574679 -1.28943509739488 3.55346907996043
2022-02-26T01:39:08.000 -3133.853147611580 4244.681396122140 -4292.081897897570 -6.64414430271555 -1.30017817123372 3.56437020021058
2022-02-26T01:39:10.000 -3147.133498982150 4242.070302101720 -4284.942271361860 -6.63620145542615 -1.31091476459343 3.57525333297120
2022-02-26T01:39:12.000 -3160.397930996720 4239.437741420200 -4277.780896594240 -6.62822495329440 -1.32164482331041 3.58611842290939
2022-02-26T01:39:14.000 -3173.646376385150 4236.783727201000 -4270.597809735610 -6.62021483590917 -1.33236829325139 3.59696541478009
2022-02-26T01:39:16.000 -3186.878767956690 4234.108272675780 -4263.393047037270 -6.61217114303205 -1.34308512031377 3.60779425342651
2022-02-26T01:39:18.000 -3200.095038600240 4231.411391184380 -4256.166644860760 -6.60409391459707 -1.35379525042604 3.61860488378056
2022-02-26T01:39:20.000 -3213.295121284770 4228.693096174740 -4248.918639677670 -6.59598319071038 -1.36449862954811 3.62939725086334
2022-02-26T01:39:22.000 -3226.478949059630 4225.953401202850 -4241.649068069420 -6.58783901164995 -1.37519520367167 3.64017129978556
2022-02-26T01:39:24.000 -3239.646455054880 4223.192319932700 -4234.357966727170 -6.57966141786517 -1.38588491882053 3.65092697574794
2022-02-26T01:39:26.000 -3252.797572481680 4220.409866136180 -4227.045372451540 -6.57145044997656 -1.39656772105098 3.66166422404167
2022-02-26T01:39:28.000 -3265.932234632580 4217.606053693050 -4219.711322152520 -6.56320614877542 -1.40724355645213 3.67238299004876
2022-02-26T01:39:30.000 -3279.050374881880 4214.780896590850 -4212.355852849220 -6.55492855522341 -1.41791237114616 3.68308321924249
2022-02-26T01:39:32.000 -3292.151926685990 4211.934408924830 -4204.979001669720 -6.54661771045223 -1.42857411128874 3.69376485718773
2022-02-26T01:39:34.000 -3305.236823583740 4209.066604897930 -4197.580805850870 -6.53827365576325 -1.43922872306924 3.70442784954137
2022-02-26T01:39:36.000 -3318.304999196740 4206.177498820650 -4190.161302738120 -6.52989643262712 -1.44987615271108 3.71507214205261
2022-02-26T01:39:38.000 -3331.356387229710 4203.267105111010 -4182.720529785330 -6.52148608268335 -1.46051634647200 3.72569768056336
2022-02-26T01:39:40.000 -3344.390921470800 4200.335438294490 -4175.258524554580 -6.51304264774001 -1.47114925064433 3.73630441100854
2022-02-26T01:39:42.000 -3357.408535791980 4197.382513003940 -4167.775324715990 -6.50456616977327 -1.48177481155524 3.74689227941640
2022-02-26T01:39:44.000 -3370.409164149310 4194.408343979530 -4160.270968047530 -6.49605669092707 -1.49239297556704 3.75746123190883
2022-02-26T01:39:46.000 -3383.392740583310 4191.412946068680 -4152.745492434820 -6.48751425351271 -1.50300368907738 3.76801121470167
2022-02-26T01:39:48.000 -3396.359199219290 4188.396334225940 -4145.198935870980 -6.47893890000848 -1.51360689851951 3.77854217410496
2022-02-26T01:39:50.000 -3409.308474267710 4185.358523513000 -4137.631336456390 -6.47033067305928 -1.52420255036250 3.78905405652324
2022-02-26T01:39:52.000 -3422.240500024440 4182.299529098550 -4130.042732398550 -6.46168961547625 -1.53479059111147 3.79954680845577
2022-02-26T01:39:54.000 -3435.155210871170 4179.219366258250 -4122.433162011830 -6.45301577023640 -1.54537096730776 3.81002037649685
2022-02-26T01:39:56.000 -3448.052541275700 4176.118050374640 -4114.802663717360 -6.44430918048227 -1.55594362552919 3.82047470733598
2022-02-26T01:39:58.000 -3460.932425792290 4172.995596937040 -4107.151276042770 -6.43556988952153 -1.56650851239020 3.83090974775811
2022-02-26T01:40:00.000 -3473.794799061960 4169.852021541550 -4099.479037622020 -6.42679794082670 -1.57706557454206 3.84132544464390
2022-02-26T01:40:02.000 -3486.639595812860 4166.687339890890 -4091.785987195240 -6.41799337803475 -1.58761475867304 3.85172174496987
2022-02-26T01:40:04.000 -3499.466750860570 4163.501567794390 -4084.072163608470 -6.40915624494682 -1.59815601150859 3.86209859580863
2022-02-26T01:40:06.000 -3512.276199108430 4160.294721167880 -4076.337605813550 -6.40028658552786 -1.60868927981149 3.87245594432907
2022-02-26T01:40:08.000 -3525.067875547870 4157.066816033630 -4068.582352867860 -6.39138444390637 -1.61921451038202 3.88279373779656
2022-02-26T01:40:10.000 -3537.841715258770 4153.817868520280 -4060.806443934160 -6.38244986437403 -1.62973165005811 3.89311192357309
2022-02-26T01:40:12.000 -3550.597653409730 4150.547894862750 -4053.009918280390 -6.37348289138551 -1.64024064571549 3.90341044911747
